*******************************************************************************
Ephemeris / WWW_USER Mon Mar 24 11:25:41 2025 Pasadena, USA      / Horizons    
*******************************************************************************
Target body name: (2017 UX51)                     {source: JPL#22}
Center body name: Earth (399)                     {source: DE441}
Center-site name: Mauna Kea
*******************************************************************************
Start time      : A.D. 2018-Aug-22 04:55:00.0000 UT      
Stop  time      : A.D. 2018-Aug-22 15:54:00.0000 UT      
Step-size       : 1 minutes
*******************************************************************************
Target pole/equ : undefined
Target radii    : undefined                                                    
Center geodetic : 204.5278, 19.8260847, 4.21024   {E-lon(deg),Lat(deg),Alt(km)}
Center cylindric: 204.5278, 6006.35451, 2151.0229 {E-lon(deg),Dxy(km),Dz(km)}
Center pole/equ : ITRF93                          {East-longitude positive}
Center radii    : 6378.137, 6378.137, 6356.752 km {Equator_a, b, pole_c}       
Target primary  : Sun
Vis. interferer : MOON (R_eq= 1737.400) km        {source: DE441}
Rel. light bend : Sun                             {source: DE441}
Rel. lght bnd GM: 1.3271E+11 km^3/s^2                                          
Small-body perts: Yes                             {source: SB441-N16}
Atmos refraction: NO (AIRLESS)
RA format       : HMS
Time format     : CAL 
Calendar mode   : Mixed Julian/Gregorian
RTS-only print  : NO       
EOP file        : eop.250321.p250617                                           
EOP coverage    : DATA-BASED 1962-JAN-20 TO 2025-MAR-21. PREDICTS-> 2025-JUN-16
Units conversion: 1 au= 149597870.700 km, c= 299792.458 km/s, 1 day= 86400.0 s 
Table cut-offs 1: Elevation (-90.0deg=NO ),Airmass (>38.000=NO), Daylight (YES)
Table cut-offs 2: Solar elongation (  0.0,180.0=NO ),Local Hour Angle( 0.0=NO )
Table cut-offs 3: RA/DEC angular rate (     0.0=NO )                           
*******************************************************************************
Initial IAU76/J2000 heliocentric ecliptic osculating elements (au, days, deg.):
  EPOCH=  2458433.5 ! 2018-Nov-11.00 (TDB)         Residual RMS= .12444        
   EC= .7474905367293002   QR= 7.612253692784782   TP= 2459819.8104231078      
   OM= 217.7952286585891   W=  255.0338939179157   IN= 90.52400691057457       
  Equivalent ICRF heliocentric cartesian coordinates (au, au/d):
   X= 8.209785034050050E+00  Y= 6.297741083246843E+00  Z= 1.446459094674425E+00
  VX=-3.080259200599625E-03 VY=-2.498125597102637E-05 VZ=-6.110805734701701E-03
Asteroid physical parameters (km, seconds, rotational period in hours):        
   GM= n.a.                RAD= n.a.               ROTPER= n.a.                
   H= 11.                  G= .150                 B-V= n.a.                   
                           ALBEDO= n.a.            STYP= n.a.                  
*******************************************************************************
 Date__(UT)__HR:MN     R.A._________(ICRF)_________DEC
******************************************************
$$SOE
 2018-Aug-22 13:07     02 47 02.724045 +11 54 24.12822
 2018-Aug-22 13:08     02 47 02.721621 +11 54 24.01734
 2018-Aug-22 13:09     02 47 02.719197 +11 54 23.90646
 2018-Aug-22 13:10     02 47 02.716771 +11 54 23.79557
 2018-Aug-22 13:11     02 47 02.714345 +11 54 23.68469
 2018-Aug-22 13:12     02 47 02.711919 +11 54 23.57379
 2018-Aug-22 13:13     02 47 02.709492 +11 54 23.46290
 2018-Aug-22 13:14     02 47 02.707064 +11 54 23.35199
 2018-Aug-22 13:15     02 47 02.704635 +11 54 23.24109
 2018-Aug-22 13:16     02 47 02.702206 +11 54 23.13018
 2018-Aug-22 13:17     02 47 02.699776 +11 54 23.01927
 2018-Aug-22 13:18     02 47 02.697345 +11 54 22.90835
 2018-Aug-22 13:19     02 47 02.694914 +11 54 22.79743
 2018-Aug-22 13:20     02 47 02.692482 +11 54 22.68651
 2018-Aug-22 13:21     02 47 02.690049 +11 54 22.57558
 2018-Aug-22 13:22     02 47 02.687616 +11 54 22.46465
 2018-Aug-22 13:23     02 47 02.685182 +11 54 22.35372
 2018-Aug-22 13:24     02 47 02.682748 +11 54 22.24278
 2018-Aug-22 13:25     02 47 02.680313 +11 54 22.13183
 2018-Aug-22 13:26     02 47 02.677877 +11 54 22.02089
 2018-Aug-22 13:27     02 47 02.675441 +11 54 21.90994
 2018-Aug-22 13:28     02 47 02.673004 +11 54 21.79898
 2018-Aug-22 13:29     02 47 02.670566 +11 54 21.68802
 2018-Aug-22 13:30     02 47 02.668128 +11 54 21.57706
 2018-Aug-22 13:31     02 47 02.665689 +11 54 21.46609
 2018-Aug-22 13:32     02 47 02.663250 +11 54 21.35512
 2018-Aug-22 13:33     02 47 02.660810 +11 54 21.24415
 2018-Aug-22 13:34     02 47 02.658369 +11 54 21.13317
 2018-Aug-22 13:35     02 47 02.655928 +11 54 21.02219
 2018-Aug-22 13:36     02 47 02.653487 +11 54 20.91120
 2018-Aug-22 13:37     02 47 02.651044 +11 54 20.80021
 2018-Aug-22 13:38     02 47 02.648601 +11 54 20.68922
 2018-Aug-22 13:39     02 47 02.646158 +11 54 20.57822
 2018-Aug-22 13:40     02 47 02.643714 +11 54 20.46722
 2018-Aug-22 13:41     02 47 02.641269 +11 54 20.35621
 2018-Aug-22 13:42     02 47 02.638824 +11 54 20.24520
 2018-Aug-22 13:43     02 47 02.636378 +11 54 20.13419
 2018-Aug-22 13:44     02 47 02.633932 +11 54 20.02317
 2018-Aug-22 13:45     02 47 02.631485 +11 54 19.91215
 2018-Aug-22 13:46     02 47 02.629038 +11 54 19.80112
 2018-Aug-22 13:47     02 47 02.626590 +11 54 19.69009
 2018-Aug-22 13:48     02 47 02.624142 +11 54 19.57906
 2018-Aug-22 13:49     02 47 02.621693 +11 54 19.46802
 2018-Aug-22 13:50     02 47 02.619243 +11 54 19.35698
 2018-Aug-22 13:51     02 47 02.616793 +11 54 19.24593
 2018-Aug-22 13:52     02 47 02.614343 +11 54 19.13488
 2018-Aug-22 13:53     02 47 02.611892 +11 54 19.02383
 2018-Aug-22 13:54     02 47 02.609440 +11 54 18.91277
 2018-Aug-22 13:55     02 47 02.606988 +11 54 18.80171
 2018-Aug-22 13:56     02 47 02.604536 +11 54 18.69064
 2018-Aug-22 13:57     02 47 02.602083 +11 54 18.57957
 2018-Aug-22 13:58     02 47 02.599629 +11 54 18.46849
 2018-Aug-22 13:59     02 47 02.597175 +11 54 18.35742
 2018-Aug-22 14:00     02 47 02.594721 +11 54 18.24633
 2018-Aug-22 14:01     02 47 02.592266 +11 54 18.13525
 2018-Aug-22 14:02     02 47 02.589810 +11 54 18.02416
 2018-Aug-22 14:03     02 47 02.587354 +11 54 17.91306
 2018-Aug-22 14:04     02 47 02.584898 +11 54 17.80196
 2018-Aug-22 14:05     02 47 02.582441 +11 54 17.69086
 2018-Aug-22 14:06     02 47 02.579984 +11 54 17.57975
 2018-Aug-22 14:07     02 47 02.577526 +11 54 17.46864
 2018-Aug-22 14:08     02 47 02.575068 +11 54 17.35753
 2018-Aug-22 14:09     02 47 02.572609 +11 54 17.24641
 2018-Aug-22 14:10     02 47 02.570150 +11 54 17.13528
 2018-Aug-22 14:11     02 47 02.567691 +11 54 17.02416
 2018-Aug-22 14:12     02 47 02.565231 +11 54 16.91302
 2018-Aug-22 14:13     02 47 02.562771 +11 54 16.80189
 2018-Aug-22 14:14     02 47 02.560310 +11 54 16.69075
 2018-Aug-22 14:15     02 47 02.557849 +11 54 16.57960
 2018-Aug-22 14:16     02 47 02.555387 +11 54 16.46846
 2018-Aug-22 14:17     02 47 02.552925 +11 54 16.35730
 2018-Aug-22 14:18     02 47 02.550463 +11 54 16.24615
 2018-Aug-22 14:19     02 47 02.548000 +11 54 16.13499
 2018-Aug-22 14:20     02 47 02.545537 +11 54 16.02382
 2018-Aug-22 14:21     02 47 02.543073 +11 54 15.91265
 2018-Aug-22 14:22     02 47 02.540609 +11 54 15.80148
 2018-Aug-22 14:23     02 47 02.538145 +11 54 15.69030
 2018-Aug-22 14:24     02 47 02.535680 +11 54 15.57912
 2018-Aug-22 14:25     02 47 02.533215 +11 54 15.46794
 2018-Aug-22 14:26     02 47 02.530750 +11 54 15.35675
 2018-Aug-22 14:27     02 47 02.528284 +11 54 15.24556
 2018-Aug-22 14:28     02 47 02.525818 +11 54 15.13436
 2018-Aug-22 14:29     02 47 02.523351 +11 54 15.02316
 2018-Aug-22 14:30     02 47 02.520884 +11 54 14.91195
 2018-Aug-22 14:31     02 47 02.518417 +11 54 14.80074
 2018-Aug-22 14:32     02 47 02.515949 +11 54 14.68953
 2018-Aug-22 14:33     02 47 02.513482 +11 54 14.57831
 2018-Aug-22 14:34     02 47 02.511013 +11 54 14.46708
 2018-Aug-22 14:35     02 47 02.508545 +11 54 14.35586
 2018-Aug-22 14:36     02 47 02.506076 +11 54 14.24463
 2018-Aug-22 14:37     02 47 02.503607 +11 54 14.13339
 2018-Aug-22 14:38     02 47 02.501137 +11 54 14.02215
 2018-Aug-22 14:39     02 47 02.498667 +11 54 13.91091
 2018-Aug-22 14:40     02 47 02.496197 +11 54 13.79966
 2018-Aug-22 14:41     02 47 02.493727 +11 54 13.68841
 2018-Aug-22 14:42     02 47 02.491256 +11 54 13.57715
 2018-Aug-22 14:43     02 47 02.488785 +11 54 13.46589
 2018-Aug-22 14:44     02 47 02.486314 +11 54 13.35463
 2018-Aug-22 14:45     02 47 02.483842 +11 54 13.24336
 2018-Aug-22 14:46     02 47 02.481371 +11 54 13.13209
 2018-Aug-22 14:47     02 47 02.478899 +11 54 13.02081
 2018-Aug-22 14:48 A   02 47 02.476426 +11 54 12.90953
 2018-Aug-22 14:49 A   02 47 02.473954 +11 54 12.79824
 2018-Aug-22 14:50 A   02 47 02.471481 +11 54 12.68695
 2018-Aug-22 14:51 A   02 47 02.469008 +11 54 12.57566
 2018-Aug-22 14:52 A   02 47 02.466534 +11 54 12.46436
 2018-Aug-22 14:53 A   02 47 02.464060 +11 54 12.35306
 2018-Aug-22 14:54 A   02 47 02.461587 +11 54 12.24175
 2018-Aug-22 14:55 A   02 47 02.459113 +11 54 12.13044
 2018-Aug-22 14:56 A   02 47 02.456638 +11 54 12.01913
 2018-Aug-22 14:57 A   02 47 02.454164 +11 54 11.90781
 2018-Aug-22 14:58 A   02 47 02.451689 +11 54 11.79649
 2018-Aug-22 14:59 A   02 47 02.449214 +11 54 11.68516
 2018-Aug-22 15:00 A   02 47 02.446739 +11 54 11.57383
 2018-Aug-22 15:01 A   02 47 02.444263 +11 54 11.46249
 2018-Aug-22 15:02 A   02 47 02.441788 +11 54 11.35115
 2018-Aug-22 15:03 A   02 47 02.439312 +11 54 11.23981
 2018-Aug-22 15:04 A   02 47 02.436836 +11 54 11.12846
 2018-Aug-22 15:05 A   02 47 02.434359 +11 54 11.01711
 2018-Aug-22 15:06 A   02 47 02.431883 +11 54 10.90575
 2018-Aug-22 15:07 At  02 47 02.429406 +11 54 10.79439
 2018-Aug-22 15:08 A   02 47 02.426930 +11 54 10.68303
 2018-Aug-22 15:09 A   02 47 02.424453 +11 54 10.57166
